NORAD_CAT_ID,OBJECT_NAME,OBJECT_TYPE,EPOCH,MEAN_MOTION,ECCENTRICITY,INCLINATION,RA_OF_ASC_NODE,ARG_OF_PERICENTER,MEAN_ANOMALY,BSTAR,MEAN_MOTION_DOT,MEAN_MOTION_DDOT,TLE_LINE0,TLE_LINE1,TLE_LINE2,SEMIMAJOR_AXIS,PERIOD,APOGEE,PERIGEE,DECAYED
53900.0,STARLINK-5045,PAYLOAD,2024-03-13 03:05:18,15.08838348,0.0001701,53.2198,345.4193,95.3576,264.761,0.00016228,2.295e-05,0.0,0 STARLINK-5045,1 53900U 22119Q   24073.12868219  .00002295  00000-0  16228-3 0  9995,2 53900  53.2198 345.4193 0001701  95.3576 264.7610 15.08838348 81586,6917.885,95.438,540.927,538.574,0.0
53900.0,STARLINK-5045,PAYLOAD,2024-03-13 11:02:13,15.08851084,0.0001681,53.2196,343.9317,86.3708,273.7477,0.00018427,2.647e-05,0.0,0 STARLINK-5045,1 53900U 22119Q   24073.45987357  .00002647  00000-0  18427-3 0  9990,2 53900  53.2196 343.9317 0001681  86.3708 273.7477 15.08851084 81638,6917.847,95.437,540.874,538.549,0.0
53900.0,STARLINK-5045,PAYLOAD,2024-03-13 22:09:55,15.0883234,0.0001396,53.2181,341.8528,91.6155,268.4998,2.8654e-05,1.68e-06,0.0,0 STARLINK-5045,1 53900U 22119Q   24073.92356472  .00000168  00000-0  28654-4 0  9990,2 53900  53.2181 341.8528 0001396  91.6155 268.4998 15.08832340 82129,6917.904,95.438,540.735,538.803,0.0
53900.0,STARLINK-5045,PAYLOAD,2024-03-14 02:56:05,15.08840232,0.0001442,53.2172,340.9568,94.3629,265.7528,7.34e-05,8.8e-06,0.0,0 STARLINK-5045,1 53900U 22119Q   24074.12228205  .00000880  00000-0  73400-4 0  9995,2 53900  53.2172 340.9568 0001442  94.3629 265.7528 15.08840232 81735,6917.88,95.438,540.742,538.747,0.0
53900.0,STARLINK-5045,PAYLOAD,2024-03-14 22:00:43,15.08838493,0.0001461,53.2175,337.3878,79.591,280.5247,0.00013301,1.829e-05,0.0,0 STARLINK-5045,1 53900U 22119Q   24074.91716439  .00001829  00000-0  13301-3 0  9990,2 53900  53.2175 337.3878 0001461  79.5910 280.5247 15.08838493 82270,6917.885,95.438,540.761,538.739,0.0
53900.0,STARLINK-5045,PAYLOAD,2024-03-15 21:51:29,15.0884527,0.0001545,53.2174,332.9268,79.9285,280.1881,-4.8377e-05,-1.058e-05,0.0,0 STARLINK-5045,1 53900U 22119Q   24075.91076157 -.00001058  00000-0 -48377-4 0  9995,2 53900  53.2174 332.9268 0001545  79.9285 280.1881 15.08845270 82423,6917.864,95.437,540.798,538.66,0.0
53900.0,STARLINK-5045,PAYLOAD,2024-03-15 23:26:53,15.08841272,0.0001462,53.2178,332.63,79.3675,280.7482,0.00014419,2.008e-05,0.0,0 STARLINK-5045,1 53900U 22119Q   24075.97700504  .00002008  00000-0  14419-3 0  9994,2 53900  53.2178 332.6300 0001462  79.3675 280.7482 15.08841272 82012,6917.877,95.437,540.753,538.73,0.0
53900.0,STARLINK-5045,PAYLOAD,2024-03-16 21:42:17,15.08843633,0.0001372,53.2175,328.4669,83.6785,276.4364,0.00015846,2.235e-05,0.0,0 STARLINK-5045,1 53900U 22119Q   24076.90436414  .00002235  00000-0  15846-3 0  9991,2 53900  53.2175 328.4669 0001372  83.6785 276.4364 15.08843633 82575,6917.869,95.437,540.683,538.785,0.0
53900.0,STARLINK-5045,PAYLOAD,2024-03-16 23:17:40,15.08844285,0.0001388,53.2176,328.1694,82.8903,277.2247,0.00016303,2.308e-05,0.0,0 STARLINK-5045,1 53900U 22119Q   24076.97060375  .00002308  00000-0  16303-3 0  9997,2 53900  53.2176 328.1694 0001388  82.8903 277.2247 15.08844285 82585,6917.867,95.437,540.692,538.772,0.0
53900.0,STARLINK-5045,PAYLOAD,2024-03-17 19:57:41,15.08838777,0.0001391,53.2172,324.3011,84.985,275.1301,6.0498e-05,6.75e-06,0.0,0 STARLINK-5045,1 53900U 22119Q   24077.83172568  .00000675  00000-0  60498-4 0  9991,2 53900  53.2172 324.3011 0001391  84.9850 275.1301 15.08838777 82295,6917.884,95.438,540.711,538.787,0.0
53900.0,STARLINK-5045,PAYLOAD,2024-03-17 21:33:04,15.08837632,0.000136,53.2171,324.0037,90.3148,269.8,4.1158e-05,3.67e-06,0.0,0 STARLINK-5045,1 53900U 22119Q   24077.89796594  .00000367  00000-0  41158-4 0  9998,2 53900  53.2171 324.0037 0001360  90.3148 269.8000 15.08837632 82729,6917.888,95.438,540.693,538.812,0.0
53900.0,STARLINK-5045,PAYLOAD,2024-03-17 23:08:27,15.08836521,0.0001328,53.2178,323.7068,91.0871,269.0273,5.1089e-05,5.25e-06,0.0,0 STARLINK-5045,1 53900U 22119Q   24077.96420787  .00000525  00000-0  51089-4 0  9994,2 53900  53.2178 323.7068 0001328  91.0871 269.0273 15.08836521 82732,6917.891,95.438,540.675,538.837,0.0
53900.0,STARLINK-5045,PAYLOAD,2024-03-18 21:23:51,15.08841408,0.0001342,53.2176,319.5441,94.437,265.6776,6.529e-05,7.51e-06,0.0,0 STARLINK-5045,1 53900U 22119Q   24078.89156513  .00000751  00000-0  65290-4 0  9990,2 53900  53.2176 319.5441 0001342  94.4370 265.6776 15.08841408 82870,6917.876,95.437,540.669,538.813,0.0
53900.0,STARLINK-5045,PAYLOAD,2024-03-19 02:10:00,15.08842348,0.0001357,53.2177,318.6525,95.6405,264.4742,6.6534e-05,7.71e-06,0.0,0 STARLINK-5045,1 53900U 22119Q   24079.09028415  .00000771  00000-0  66534-4 0  9996,2 53900  53.2177 318.6525 0001357  95.6405 264.4742 15.08842348 82483,6917.873,95.437,540.677,538.799,0.0
53900.0,STARLINK-5045,PAYLOAD,2024-03-20 00:25:23,15.08848367,0.000128,53.2168,314.491,92.857,267.2569,0.00019963,2.891e-05,0.0,0 STARLINK-5045,1 53900U 22119Q   24080.01763694  .00002891  00000-0  19963-3 0  9993,2 53900  53.2168 314.4910 0001280  92.8570 267.2569 15.08848367 83040,6917.855,95.437,540.605,538.834,0.0
53900.0,STARLINK-5045,PAYLOAD,2024-03-20 21:05:25,15.08838086,9.66e-05,53.2161,310.6258,100.7264,259.3837,-3.9184e-05,-9.11e-06,0.0,0 STARLINK-5045,1 53900U 22119Q   24080.87876315 -.00000911  00000-0 -39184-4 0  9993,2 53900  53.2161 310.6258 0000966 100.7264 259.3837 15.08838086 82759,6917.886,95.438,540.42,539.083,0.0
53900.0,STARLINK-5045,PAYLOAD,2024-03-20 22:40:48,15.08836921,0.0001013,53.2165,310.3287,106.1985,253.9118,-5.5495e-05,-1.171e-05,0.0,0 STARLINK-5045,1 53900U 22119Q   24080.94500367 -.00001171  00000-0 -55495-4 0  9994,2 53900  53.2165 310.3287 0001013 106.1985 253.9118 15.08836921 83182,6917.89,95.438,540.456,539.054,0.0
53900.0,STARLINK-5045,PAYLOAD,2024-03-21 00:16:11,15.08836291,0.0001036,53.216,310.031,88.6281,271.4829,-5.6581e-05,-1.188e-05,0.0,0 STARLINK-5045,1 53900U 22119Q   24081.01124483 -.00001188  00000-0 -56581-4 0  9999,2 53900  53.2160 310.0310 0001036  88.6281 271.4829 15.08836291 83194,6917.892,95.438,540.473,539.04,0.0
53900.0,STARLINK-5045,PAYLOAD,2024-03-21 22:31:35,15.08844235,0.0001454,53.2163,305.8696,72.4641,287.651,0.00014859,2.078e-05,0.0,0 STARLINK-5045,1 53900U 22119Q   24081.93860568  .00002078  00000-0  14859-3 0  9999,2 53900  53.2163 305.8696 0001454  72.4641 287.6510 15.08844235 83330,6917.867,95.437,540.738,538.727,0.0
53900.0,STARLINK-5045,PAYLOAD,2024-03-22 20:46:57,15.08866911,0.0001373,53.2159,301.7039,64.6798,295.4336,0.00051871,7.983e-05,0.0,0 STARLINK-5045,1 53900U 22119Q   24082.86594622  .00007983  00000-0  51871-3 0  9992,2 53900  53.2159 301.7039 0001373  64.6798 295.4336 15.08866911 83054,6917.798,95.436,540.613,538.713,0.0
53900.0,STARLINK-5045,PAYLOAD,2024-03-23 20:37:46,15.08828808,0.0001358,53.2158,297.246,73.6469,286.4672,-0.00027817,-4.711e-05,0.0,0 STARLINK-5045,1 53900U 22119Q   24083.85956441 -.00004711  00000-0 -27817-3 0  9994,2 53900  53.2158 297.2460 0001358  73.6469 286.4672 15.08828808 83201,6917.915,95.438,540.719,538.84,0.0
53900.0,STARLINK-5045,PAYLOAD,2024-03-24 07:45:28,15.08835462,0.000135,53.216,295.1631,101.3415,258.7729,-0.00013213,-2.39e-05,0.0,0 STARLINK-5045,1 53900U 22119Q   24084.32324179 -.00002390  00000-0 -13213-3 0  9990,2 53900  53.2160 295.1631 0001350 101.3415 258.7729 15.08835462 83279,6917.894,95.438,540.693,538.825,0.0
53900.0,STARLINK-5045,PAYLOAD,2024-03-24 20:28:34,15.08828952,0.0001517,53.2171,292.7833,98.1124,262.004,0.00035963,5.438e-05,0.0,0 STARLINK-5045,1 53900U 22119Q   24084.85317196  .00005438  00000-0  35963-3 0  9999,2 53900  53.2171 292.7833 0001517  98.1124 262.0040 15.08828952 83352,6917.914,95.438,540.829,538.73,0.0
53900.0,STARLINK-5045,PAYLOAD,2024-03-25 20:19:21,15.08847669,0.0001415,53.2168,288.3232,83.6026,276.5128,0.00070838,0.00011006,0.0,0 STARLINK-5045,1 53900U 22119Q   24085.84677390  .00011006  00000-0  70838-3 0  9992,2 53900  53.2168 288.3232 0001415  83.6026 276.5128 15.08847669 83925,6917.857,95.437,540.701,538.743,0.0
53900.0,STARLINK-5045,PAYLOAD,2024-03-26 05:51:39,15.08859307,0.0001291,53.216,286.539,74.2432,285.8702,0.00075679,0.00011783,0.0,0 STARLINK-5045,1 53900U 22119Q   24086.24420881  .00011783  00000-0  75679-3 0  9998,2 53900  53.2160 286.5390 0001291  74.2432 285.8702 15.08859307 83564,6917.821,95.436,540.579,538.793,0.0
53900.0,STARLINK-5045,PAYLOAD,2024-03-26 13:48:36,15.08836263,0.0002333,53.2162,285.0509,60.0477,300.0747,-2.2036e-05,-6.39e-06,0.0,0 STARLINK-5045,1 53900U 22119Q   24086.57541685 -.00000639  00000-0 -22036-4 0  9990,2 53900  53.2162 285.0509 0002333  60.0477 300.0747 15.08836263 84030,6917.892,95.438,541.371,538.143,0.0
53900.0,STARLINK-5045,PAYLOAD,2024-03-26 20:10:08,15.08832504,0.000142,53.2162,283.865,70.6652,289.4494,-8.2223e-05,-1.596e-05,0.0,0 STARLINK-5045,1 53900U 22119Q   24086.84037672 -.00001596  00000-0 -82223-4 0  9993,2 53900  53.2162 283.8650 0001420  70.6652 289.4494 15.08832504 83651,6917.903,95.438,540.751,538.786,0.0
53900.0,STARLINK-5045,PAYLOAD,2024-03-27 05:42:27,15.0884483,0.0001453,53.2161,282.078,61.088,299.0258,0.00045018,6.885e-05,0.0,0 STARLINK-5045,1 53900U 22119Q   24087.23781568  .00006885  00000-0  45018-3 0  9991,2 53900  53.2161 282.0780 0001453  61.0880 299.0258 15.08844830 83715,6917.866,95.437,540.736,538.725,0.0
53900.0,STARLINK-5045,PAYLOAD,2024-03-27 20:00:55,15.08837772,0.0001259,53.2158,279.4043,80.5616,279.5519,0.00013119,1.801e-05,0.0,0 STARLINK-5045,1 53900U 22119Q   24087.83397955  .00001801  00000-0  13119-3 0  9990,2 53900  53.2158 279.4043 0001259  80.5616 279.5519 15.08837772 83800,6917.887,95.438,540.623,538.881,0.0
53900.0,STARLINK-5045,PAYLOAD,2024-03-28 11:54:47,15.08853797,0.0002616,53.2158,276.4302,77.1809,282.9476,0.00055808,8.608e-05,0.0,0 STARLINK-5045,1 53900U 22119Q   24088.49637945  .00008608  00000-0  55808-3 0  9992,2 53900  53.2158 276.4302 0002616  77.1809 282.9476 15.08853797 83905,6917.838,95.437,541.513,537.894,0.0
